0 COSMOS 2251 DEB
1 33812U 93036BD  13281.47111529  .00018040  00000-0  23537-2 0  4690
2 33812 074.0369 065.6117 0254646 177.9939 239.9548 14.60339158246198
0 COSMOS 2251 DEB
1 33812U 93036BD  13282.35472172  .00029443  00000-0  38319-2 0  4707
2 33812 074.0368 063.9227 0254361 176.0923 205.3201 14.60391987246323
0 COSMOS 2251 DEB
1 33812U 93036BD  13282.85411279  .00023606  00000-0  30749-2 0  4718
2 33812 074.0368 062.9678 0254256 175.0055 310.8493 14.60410241246409
0 COSMOS 2251 DEB
1 33812U 93036BD  13284.14179419  .00026460  00000-0  34435-2 0  4727
2 33812 074.0364 060.5057 0253978 172.2422 240.9236 14.60465780246582
0 COSMOS 2251 DEB
1 33812U 93036BD  13285.51604786  .00022482  00000-0  29264-2 0  4734
2 33812 074.0363 057.8777 0253666 169.2748 266.4509 14.60527213246799
0 COSMOS 2251 DEB
1 33812U 93036BD  13286.82678233  .00022870  00000-0  29758-2 0  4747
2 33812 074.0364 055.3709 0253366 166.4321 318.3016 14.60580622246985
0 COSMOS 2251 DEB
1 33812U 93036BD  13288.11562738  .00034949  00000-0  45365-2 0  4756
2 33812 074.0368 052.9060 0253030 163.6451 255.3157 14.60645818247169
0 COSMOS 2251 DEB
1 33812U 93036BD  13289.34350626  .00027909  00000-0  36240-2 0  4764
2 33812 074.0372 050.5574 0252726 160.9889 232.0618 14.60714844247344
0 COSMOS 2251 DEB
1 33812U 93036BD  13290.45544418  .00029679  00000-0  38516-2 0  4777
2 33812 074.0375 048.4307 0252427 158.5906 319.3714 14.60767552247517
0 COSMOS 2251 DEB
1 33812U 93036BD  13291.48312502  .00026219  00000-0  34028-2 0  4780
2 33812 074.0377 046.4650 0252181 156.3539 323.8244 14.60819788247666
0 COSMOS 2251 DEB
1 33812U 93036BD  13292.79114166  .00024786  00000-0  32161-2 0  4795
2 33812 074.0377 043.9628 0251836 153.5069 002.8034 14.60885313247855
0 COSMOS 2251 DEB
1 33812U 93036BD  13294.14487902  .00025784  00000-0  33437-2 0  4805
2 33812 074.0374 041.3729 0251509 150.5730 282.5282 14.60944903248051
0 COSMOS 2251 DEB
1 33812U 93036BD  13295.37554634  .00027083  00000-0  35097-2 0  4817
2 33812 074.0372 039.0182 0251235 147.8919 275.2539 14.61001241248223
